[{"OBJECT_NAME":"STARLINK-6158","OBJECT_ID":"2023-061B","EPOCH":"2026-03-09T22:00:01.999584","MEAN_MOTION":15.15207628,"ECCENTRICITY":0.00022961,"INCLINATION":43.0001,"RA_OF_ASC_NODE":195.9586,"ARG_OF_PERICENTER":267.0912,"MEAN_ANOMALY":36.8876,"EPHEMERIS_TYPE":0,"CLASSIFICATION_TYPE":"U","NORAD_CAT_ID":56375,"ELEMENT_SET_NO":999,"REV_AT_EPOCH":567,"BSTAR":0.064128885,"MEAN_MOTION_DOT":0.01331927,"MEAN_MOTION_DDOT":0},{"OBJECT_NAME":"FENGYUN 1C DEB","OBJECT_ID":"1999-025BZU","EPOCH":"2026-03-09T17:19:51.665664","MEAN_MOTION":15.28412118,"ECCENTRICITY":0.00188802,"INCLINATION":98.9598,"RA_OF_ASC_NODE":354.2029,"ARG_OF_PERICENTER":82.3682,"MEAN_ANOMALY":277.9697,"EPHEMERIS_TYPE":0,"CLASSIFICATION_TYPE":"U","NORAD_CAT_ID":31614,"ELEMENT_SET_NO":999,"REV_AT_EPOCH":97742,"BSTAR":0.011500831,"MEAN_MOTION_DOT":0.0033373,"MEAN_MOTION_DDOT":0}]
